{"type": "FeatureCollection", "features": [ {"type": "Feature", "properties": {"norad_id": 28649, "name": "IRS-P5 (CARTOSAT-1)", "group": "resource", "lat": 34.56374997322847, "lon": -152.52464613748094, "alt_km": 594.3915126200664, "timestamp": "2025-12-22T05:49:03.138733+00:00", "meta": {"OBJECT_NAME": "IRS-P5 (CARTOSAT-1)", "OBJECT_ID": "2005-017A", "EPOCH": "2025-12-21T19:30:05.637600", "MEAN_MOTION": 14.90432684, "ECCENTRICITY": 6.97e-05, "INCLINATION": 97.5484, "RA_OF_ASC_NODE": 21.8232, "ARG_OF_PERICENTER": 53.8143, "MEAN_ANOMALY": 306.314, "EPHEMERIS_TYPE": 0, "CLASSIFICATION_TYPE": "U", "NORAD_CAT_ID": 28649, "ELEMENT_SET_NO": 999, "REV_AT_EPOCH": 11739, "BSTAR": 0.00013152, "MEAN_MOTION_DOT": 1.23e-05, "MEAN_MOTION_DDOT": 0}, "tle": {"line1": "1 28649U 05017A   25355.81256525  .00001230  00000+0  13152-3 0  9996", "line2": "2 28649  97.5484  21.8232 0000697  53.8143 306.3140 14.90432684117391"}}, "geometry": {"type": "Point", "coordinates": [-152.52464613748094, 34.56374997322847]}}, {"type": "Feature", "properties": {"norad_id": 28893, "name": "SINAH 1", "group": "resource", "lat": -44.31144357428789, "lon": 132.97906655772272, "alt_km": 697.009721893517, "timestamp": "2025-12-22T05:49:03.138744+00:00", "meta": {"OBJECT_NAME": "SINAH 1", "OBJECT_ID": "2005-043D", "EPOCH": "2025-12-21T20:10:50.039616", "MEAN_MOTION": 14.63971368, "ECCENTRICITY": 0.0015667, "INCLINATION": 98.2609, "RA_OF_ASC_NODE": 124.4226, "ARG_OF_PERICENTER": 110.4003, "MEAN_ANOMALY": 249.8883, "EPHEMERIS_TYPE": 0, "CLASSIFICATION_TYPE": "U", "NORAD_CAT_ID": 28893, "ELEMENT_SET_NO": 999, "REV_AT_EPOCH": 7457, "BSTAR": 7.6495e-05, "MEAN_MOTION_DOT": 3.52e-06, "MEAN_MOTION_DDOT": 0}, "tle": {"line1": "1 28893U 05043D   25355.84085694  .00000352  00000+0  76495-4 0  9990", "line2": "2 28893  98.2609 124.4226 0015667 110.4003 249.8883 14.63971368 74574"}}, "geometry": {"type": "Point", "coordinates": [132.97906655772272, -44.31144357428789]}}, {"type": "Feature", "properties": {"norad_id": 29079, "name": "EROS B", "group": "resource", "lat": -22.422422202410548, "lon": 116.34120796746397, "alt_km": 358.7863572671449, "timestamp": "2025-12-22T05:49:03.138755+00:00", "meta": {"OBJECT_NAME": "EROS B", "OBJECT_ID": "2006-014A", "EPOCH": "2025-12-21T20:44:31.059168", "MEAN_MOTION": 15.71052826, "ECCENTRICITY": 0.0003753, "INCLINATION": 97.3463, "RA_OF_ASC_NODE": 112.8918, "ARG_OF_PERICENTER": 312.3444, "MEAN_ANOMALY": 47.7501, "EPHEMERIS_TYPE": 0, "CLASSIFICATION_TYPE": "U", "NORAD_CAT_ID": 29079, "ELEMENT_SET_NO": 999, "REV_AT_EPOCH": 9223, "BSTAR": 0.0013502, "MEAN_MOTION_DOT": 0.00172363, "MEAN_MOTION_DDOT": 0}, "tle": {"line1": "1 29079U 06014A   25355.86424837  .00172363  00000+0  13502-2 0  9994", "line2": "2 29079  97.3463 112.8918 0003753 312.3444  47.7501 15.71052826 92237"}}, "geometry": {"type": "Point", "coordinates": [116.34120796746397, -22.422422202410548]}}, {"type": "Feature", "properties": {"norad_id": 29228, "name": "RESURS-DK 1", "group": "resource", "lat": 66.09939332286244, "lon": -158.2918388361563, "alt_km": 526.3783757499241, "timestamp": "2025-12-22T05:49:03.138765+00:00", "meta": {"OBJECT_NAME": "RESURS-DK 1", "OBJECT_ID": "2006-021A", "EPOCH": "2025-12-21T16:39:43.433280", "MEAN_MOTION": 15.12205995, "ECCENTRICITY": 0.000686, "INCLINATION": 69.9339, "RA_OF_ASC_NODE": 78.6966, "ARG_OF_PERICENTER": 251.1441, "MEAN_ANOMALY": 108.8982, "EPHEMERIS_TYPE": 0, "CLASSIFICATION_TYPE": "U", "NORAD_CAT_ID": 29228, "ELEMENT_SET_NO": 999, "REV_AT_EPOCH": 7573, "BSTAR": 0.00012385, "MEAN_MOTION_DOT": 2.037e-05, "MEAN_MOTION_DDOT": 0}, "tle": {"line1": "1 29228U 06021A   25355.69425270  .00002037  00000+0  12385-3 0  9990", "line2": "2 29228  69.9339  78.6966 0006860 251.1441 108.8982 15.12205995 75731"}}, "geometry": {"type": "Point", "coordinates": [-158.2918388361563, 66.09939332286244]}}, {"type": "Feature", "properties": {"norad_id": 29268, "name": "ARIRANG-2 (KOMPSAT-2)", "group": "resource", "lat": -57.62884220418358, "lon": -8.27782587015349, "alt_km": 678.466354420244, "timestamp": "2025-12-22T05:49:03.138776+00:00", "meta": {"OBJECT_NAME": "ARIRANG-2 (KOMPSAT-2)", "OBJECT_ID": "2006-031A", "EPOCH": "2025-12-21T21:02:21.093792", "MEAN_MOTION": 14.6450215, "ECCENTRICITY": 0.0013155, "INCLINATION": 97.8252, "RA_OF_ASC_NODE": 183.9039, "ARG_OF_PERICENTER": 277.7166, "MEAN_ANOMALY": 193.5716, "EPHEMERIS_TYPE": 0, "CLASSIFICATION_TYPE": "U", "NORAD_CAT_ID": 29268, "ELEMENT_SET_NO": 999, "REV_AT_EPOCH": 3552, "BSTAR": 0.00012317, "MEAN_MOTION_DOT": 6.08e-06, "MEAN_MOTION_DDOT": 0}, "tle": {"line1": "1 29268U 06031A   25355.87663303  .00000608  00000+0  12317-3 0  9993", "line2": "2 29268  97.8252 183.9039 0013155 277.7166 193.5716 14.64502150 35521"}}, "geometry": {"type": "Point", "coordinates": [-8.27782587015349, -57.62884220418358]}}, {"type": "Feature", "properties": {"norad_id": 29709, "name": "LAPAN-TUBSAT", "group": "resource", "lat": 2.8736055214104503, "lon": 167.00490246922817, "alt_km": 620.1877506749388, "timestamp": "2025-12-22T05:49:03.138787+00:00", "meta": {"OBJECT_NAME": "LAPAN-TUBSAT", "OBJECT_ID": "2007-001A", "EPOCH": "2025-12-21T20:56:32.913024", "MEAN_MOTION": 14.85683507, "ECCENTRICITY": 0.0013358, "INCLINATION": 98.1254, "RA_OF_ASC_NODE": 346.2166, "ARG_OF_PERICENTER": 47.266, "MEAN_ANOMALY": 312.9677, "EPHEMERIS_TYPE": 0, "CLASSIFICATION_TYPE": "U", "NORAD_CAT_ID": 29709, "ELEMENT_SET_NO": 999, "REV_AT_EPOCH": 2482, "BSTAR": 9.3157e-05, "MEAN_MOTION_DOT": 7.51e-06, "MEAN_MOTION_DDOT": 0}, "tle": {"line1": "1 29709U 07001A   25355.87260316  .00000751  00000+0  93157-4 0  9999", "line2": "2 29709  98.1254 346.2166 0013358  47.2660 312.9677 14.85683507 24829"}}, "geometry": {"type": "Point", "coordinates": [167.00490246922817, 2.8736055214104503]}}, {"type": "Feature", "properties": {"norad_id": 31113, "name": "HAIYANG-1B", "group": "resource", "lat": -6.9111717509837325, "lon": -18.85391362722667, "alt_km": 782.8766941779786, "timestamp": "2025-12-22T05:49:03.138798+00:00", "meta": {"OBJECT_NAME": "HAIYANG-1B", "OBJECT_ID": "2007-010A", "EPOCH": "2025-12-21T19:46:52.009248", "MEAN_MOTION": 14.30967818, "ECCENTRICITY": 0.0013796, "INCLINATION": 98.3323, "RA_OF_ASC_NODE": 339.7273, "ARG_OF_PERICENTER": 12.156, "MEAN_ANOMALY": 347.9954, "EPHEMERIS_TYPE": 0, "CLASSIFICATION_TYPE": "U", "NORAD_CAT_ID": 31113, "ELEMENT_SET_NO": 999, "REV_AT_EPOCH": 97526, "BSTAR": 4.3332e-05, "MEAN_MOTION_DOT": 7.2e-07, "MEAN_MOTION_DDOT": 0}, "tle": {"line1": "1 31113U 07010A   25355.82421307  .00000072  00000+0  43332-4 0  9991", "line2": "2 31113  98.3323 339.7273 0013796  12.1560 347.9954 14.30967818975261"}}, "geometry": {"type": "Point", "coordinates": [-18.85391362722667, -6.9111717509837325]}}, {"type": "Feature", "properties": {"norad_id": 31598, "name": "COSMO-SKYMED 1", "group": "resource", "lat": 60.40496369702832, "lon": 15.825147416717796, "alt_km": 573.1065091826113, "timestamp": "2025-12-22T05:49:03.138809+00:00", "meta": {"OBJECT_NAME": "COSMO-SKYMED 1", "OBJECT_ID": "2007-023A", "EPOCH": "2025-12-21T19:39:24.350112", "MEAN_MOTION": 14.95831009, "ECCENTRICITY": 0.0001514, "INCLINATION": 97.8838, "RA_OF_ASC_NODE": 181.278, "ARG_OF_PERICENTER": 81.8695, "MEAN_ANOMALY": 278.2697, "EPHEMERIS_TYPE": 0, "CLASSIFICATION_TYPE": "U", "NORAD_CAT_ID": 31598, "ELEMENT_SET_NO": 999, "REV_AT_EPOCH": 326, "BSTAR": 0.00026759, "MEAN_MOTION_DOT": 2.929e-05, "MEAN_MOTION_DDOT": 0}, "tle": {"line1": "1 31598U 07023A   25355.81903183  .00002929  00000+0  26759-3 0  9994", "line2": "2 31598  97.8838 181.2780 0001514  81.8695 278.2697 14.95831009  3268"}}, "geometry": {"type": "Point", "coordinates": [15.825147416717796, 60.40496369702832]}}, {"type": "Feature", "properties": {"norad_id": 31698, "name": "TERRASAR-X", "group": "resource", "lat": -31.52403615162731, "lon": 176.88347885539739, "alt_km": 515.2118017303937, "timestamp": "2025-12-22T05:49:03.138819+00:00", "meta": {"OBJECT_NAME": "TERRASAR-X", "OBJECT_ID": "2007-026A", "EPOCH": "2025-12-21T13:04:48.918432", "MEAN_MOTION": 15.19155537, "ECCENTRICITY": 0.0001908, "INCLINATION": 97.4453, "RA_OF_ASC_NODE": 0.797, "ARG_OF_PERICENTER": 92.2081, "MEAN_ANOMALY": 267.9372, "EPHEMERIS_TYPE": 0, "CLASSIFICATION_TYPE": "U", "NORAD_CAT_ID": 31698, "ELEMENT_SET_NO": 999, "REV_AT_EPOCH": 2625, "BSTAR": 3.2984e-05, "MEAN_MOTION_DOT": 6.26e-06, "MEAN_MOTION_DDOT": 0}, "tle": {"line1": "1 31698U 07026A   25355.54501063  .00000626  00000+0  32984-4 0  9999", "line2": "2 31698  97.4453   0.7970 0001908  92.2081 267.9372 15.19155537 26257"}}, "geometry": {"type": "Point", "coordinates": [176.88347885539739, -31.52403615162731]}}, {"type": "Feature", "properties": {"norad_id": 32060, "name": "WORLDVIEW-1 (WV-1)", "group": "resource", "lat": 35.97099962659807, "lon": 108.1867322858455, "alt_km": 489.6853564516259, "timestamp": "2025-12-22T05:49:03.138830+00:00", "meta": {"OBJECT_NAME": "WORLDVIEW-1 (WV-1)", "OBJECT_ID": "2007-041A", "EPOCH": "2025-12-21T20:12:11.811168", "MEAN_MOTION": 15.23897101, "ECCENTRICITY": 0.0003394, "INCLINATION": 97.3825, "RA_OF_ASC_NODE": 113.192, "ARG_OF_PERICENTER": 6.6748, "MEAN_ANOMALY": 353.4534, "EPHEMERIS_TYPE": 0, "CLASSIFICATION_TYPE": "U", "NORAD_CAT_ID": 32060, "ELEMENT_SET_NO": 999, "REV_AT_EPOCH": 1586, "BSTAR": 0.00026614, "MEAN_MOTION_DOT": 6.357e-05, "MEAN_MOTION_DDOT": 0}, "tle": {"line1": "1 32060U 07041A   25355.84180337  .00006357  00000+0  26614-3 0  9999", "line2": "2 32060  97.3825 113.1920 0003394   6.6748 353.4534 15.23897101 15868"}}, "geometry": {"type": "Point", "coordinates": [108.1867322858455, 35.97099962659807]}}]}